{"type": "FeatureCollection", "features": [{"type": "Feature", "properties": {"gem_nr": 101, "name": "Brunnwil", "flaeche_km2": 8.095}, "geometry": {"type": "Polygon", "coordinates": [[[7.8320552, 46.8604566], [7.867027, 46.8603311], [7.868584, 46.8873323], [7.8322493, 46.88704], [7.8320552, 46.8604566]]]}}, {"type": "Feature", "properties": {"gem_nr": 102, "name": "Eggberg", "flaeche_km2": 10.22}, "geometry": {"type": "Polygon", "coordinates": [[[7.867027, 46.8603311], [7.9036537, 46.8601883], [7.9142862, 46.8925265], [7.868584, 46.8873323], [7.867027, 46.8603311]]]}}, {"type": "Feature", "properties": {"gem_nr": 103, "name": "Farnach", "flaeche_km2": 9.133}, "geometry": {"type": "Polygon", "coordinates": [[[7.9036537, 46.8601883], [7.9426327, 46.8600234], [7.9431283, 46.8909611], [7.9142862, 46.8925265], [7.9036537, 46.8601883]]]}}, {"type": "Feature", "properties": {"gem_nr": 104, "name": "Grundmatt", "flaeche_km2": 11.199}, "geometry": {"type": "Polygon", "coordinates": [[[7.9426327, 46.8600234], [7.9894192, 46.8598079], [7.9896816, 46.8854519], [7.9431283, 46.8909611], [7.9426327, 46.8600234]]]}}, {"type": "Feature", "properties": {"gem_nr": 105, "name": "Hohwil", "flaeche_km2": 10.02}, "geometry": {"type": "Polygon", "coordinates": [[[7.8322493, 46.88704], [7.868584, 46.8873323], [7.8787832, 46.9158116], [7.8324598, 46.9158361], [7.8322493, 46.88704]]]}}, {"type": "Feature", "properties": {"gem_nr": 106, "name": "Kellenberg", "flaeche_km2": 8.783}, "geometry": {"type": "Polygon", "coordinates": [[[7.868584, 46.8873323], [7.9142862, 46.8925265], [7.9107247, 46.9181043], [7.8787832, 46.9158116], [7.868584, 46.8873323]]]}}, {"type": "Feature", "properties": {"gem_nr": 107, "name": "Lindwil", "flaeche_km2": 6.583}, "geometry": {"type": "Polygon", "coordinates": [[[7.9142862, 46.8925265], [7.9431283, 46.8909611], [7.9455121, 46.9143387], [7.9107247, 46.9181043], [7.9142862, 46.8925265]]]}}, {"type": "Feature", "properties": {"gem_nr": 108, "name": "Moosegg", "flaeche_km2": 9.638}, "geometry": {"type": "Polygon", "coordinates": [[[7.9431283, 46.8909611], [7.9896816, 46.8854519], [7.9899519, 46.9118595], [7.9455121, 46.9143387], [7.9431283, 46.8909611]]]}}, {"type": "Feature", "properties": {"gem_nr": 109, "name": "Nidfeld", "flaeche_km2": 9.804}, "geometry": {"type": "Polygon", "coordinates": [[[7.8324598, 46.9158361], [7.8787832, 46.9158116], [7.877121, 46.9412514], [7.8326469, 46.9414128], [7.8324598, 46.9158361]]]}}, {"type": "Feature", "properties": {"gem_nr": 110, "name": "Oberried", "flaeche_km2": 6.929}, "geometry": {"type": "Polygon", "coordinates": [[[7.8787832, 46.9158116], [7.9107247, 46.9181043], [7.9127758, 46.9411096], [7.877121, 46.9412514], [7.8787832, 46.9158116]]]}}, {"type": "Feature", "properties": {"gem_nr": 111, "name": "Rütiwil", "flaeche_km2": 6.961}, "geometry": {"type": "Polygon", "coordinates": [[[7.9107247, 46.9181043], [7.9455121, 46.9143387], [7.9441765, 46.9409755], [7.9127758, 46.9411096], [7.9107247, 46.9181043]]]}}, {"type": "Feature", "properties": {"gem_nr": 112, "name": "Sonnhalden", "flaeche_km2": 10.635}, "geometry": {"type": "Polygon", "coordinates": [[[7.9455121, 46.9143387], [7.9899519, 46.9118595], [7.9902482, 46.9407631], [7.9441765, 46.9409755], [7.9455121, 46.9143387]]]}}]}
