{"type": "FeatureCollection", "features": [{"type": "Feature", "properties": {"name": "Schule 001", "typ": "sekundar", "schueler": 247}, "geometry": {"type": "Point", "coordinates": [7.9551953, 46.9349022]}}, {"type": "Feature", "properties": {"name": "Schule 002", "typ": "kindergarten", "schueler": 42}, "geometry": {"type": "Point", "coordinates": [7.834596, 46.8833978]}}, {"type": "Feature", "properties": {"name": "Schule 003", "typ": "primar", "schueler": 396}, "geometry": {"type": "Point", "coordinates": [7.8493804, 46.9201872]}}, {"type": "Feature", "properties": {"name": "Schule 004", "typ": "primar", "schueler": 258}, "geometry": {"type": "Point", "coordinates": [7.8589922, 46.8825481]}}, {"type": "Feature", "properties": {"name": "Schule 005", "typ": "primar", "schueler": 172}, "geometry": {"type": "Point", "coordinates": [7.8979838, 46.8830353]}}, {"type": "Feature", "properties": {"name": "Schule 006", "typ": "sekundar", "schueler": 874}, "geometry": {"type": "Point", "coordinates": [7.9664148, 46.8639975]}}, {"type": "Feature", "properties": {"name": "Schule 007", "typ": "primar", "schueler": 86}, "geometry": {"type": "Point", "coordinates": [7.9160069, 46.8820612]}}, {"type": "Feature", "properties": {"name": "Schule 008", "typ": "primar", "schueler": 413}, "geometry": {"type": "Point", "coordinates": [7.9690845, 46.8759312]}}, {"type": "Feature", "properties": {"name": "Schule 009", "typ": "kindergarten", "schueler": 33}, "geometry": {"type": "Point", "coordinates": [7.9804029, 46.8660353]}}, {"type": "Feature", "properties": {"name": "Schule 010", "typ": "sekundar", "schueler": 672}, "geometry": {"type": "Point", "coordinates": [7.9843487, 46.8952205]}}, {"type": "Feature", "properties": {"name": "Schule 011", "typ": "sekundar", "schueler": 764}, "geometry": {"type": "Point", "coordinates": [7.8832838, 46.9114063]}}, {"type": "Feature", "properties": {"name": "Schule 012", "typ": "sekundar", "schueler": 292}, "geometry": {"type": "Point", "coordinates": [7.8742553, 46.919195]}}, {"type": "Feature", "properties": {"name": "Schule 013", "typ": "sekundar", "schueler": 601}, "geometry": {"type": "Point", "coordinates": [7.8784282, 46.9302002]}}, {"type": "Feature", "properties": {"name": "Schule 014", "typ": "primar", "schueler": 220}, "geometry": {"type": "Point", "coordinates": [7.9779798, 46.8642657]}}, {"type": "Feature", "properties": {"name": "Schule 015", "typ": "kindergarten", "schueler": 12}, "geometry": {"type": "Point", "coordinates": [7.8843729, 46.8622026]}}, {"type": "Feature", "properties": {"name": "Schule 016", "typ": "primar", "schueler": 122}, "geometry": {"type": "Point", "coordinates": [7.9128511, 46.8642678]}}, {"type": "Feature", "properties": {"name": "Schule 017", "typ": "primar", "schueler": 231}, "geometry": {"type": "Point", "coordinates": [7.8920156, 46.8936296]}}, {"type": "Feature", "properties": {"name": "Schule 018", "typ": "primar", "schueler": 440}, "geometry": {"type": "Point", "coordinates": [7.9493704, 46.9262594]}}, {"type": "Feature", "properties": {"name": "Schule 019", "typ": "kindergarten", "schueler": 33}, "geometry": {"type": "Point", "coordinates": [7.9253933, 46.8901221]}}, {"type": "Feature", "properties": {"name": "Schule 020", "typ": "primar", "schueler": 112}, "geometry": {"type": "Point", "coordinates": [7.8370214, 46.8703757]}}, {"type": "Feature", "properties": {"name": "Schule 021", "typ": "sekundar", "schueler": 574}, "geometry": {"type": "Point", "coordinates": [7.9065447, 46.9034626]}}, {"type": "Feature", "properties": {"name": "Schule 022", "typ": "primar", "schueler": 136}, "geometry": {"type": "Point", "coordinates": [7.9152182, 46.8924218]}}, {"type": "Feature", "properties": {"name": "Schule 023", "typ": "sekundar", "schueler": 731}, "geometry": {"type": "Point", "coordinates": [7.9672927, 46.9334132]}}, {"type": "Feature", "properties": {"name": "Schule 024", "typ": "primar", "schueler": 291}, "geometry": {"type": "Point", "coordinates": [7.9249016, 46.9327408]}}, {"type": "Feature", "properties": {"name": "Schule 025", "typ": "primar", "schueler": 110}, "geometry": {"type": "Point", "coordinates": [7.9677218, 46.8895773]}}, {"type": "Feature", "properties": {"name": "Schule 026", "typ": "sekundar", "schueler": 701}, "geometry": {"type": "Point", "coordinates": [7.8946639, 46.9169028]}}, {"type": "Feature", "properties": {"name": "Schule 027", "typ": "sekundar", "schueler": 254}, "geometry": {"type": "Point", "coordinates": [7.8590688, 46.9375985]}}, {"type": "Feature", "properties": {"name": "Schule 028", "typ": "kindergarten", "schueler": 24}, "geometry": {"type": "Point", "coordinates": [7.9519071, 46.8660928]}}, {"type": "Feature", "properties": {"name": "Schule 029", "typ": "kindergarten", "schueler": 31}, "geometry": {"type": "Point", "coordinates": [7.8662596, 46.8640941]}}, {"type": "Feature", "properties": {"name": "Schule 030", "typ": "kindergarten", "schueler": 56}, "geometry": {"type": "Point", "coordinates": [7.9561078, 46.8939176]}}, {"type": "Feature", "properties": {"name": "Schule 031", "typ": "primar", "schueler": 397}, "geometry": {"type": "Point", "coordinates": [7.8701822, 46.9255026]}}, {"type": "Feature", "properties": {"name": "Schule 032", "typ": "primar", "schueler": 377}, "geometry": {"type": "Point", "coordinates": [7.9238342, 46.9101939]}}, {"type": "Feature", "properties": {"name": "Schule 033", "typ": "sekundar", "schueler": 796}, "geometry": {"type": "Point", "coordinates": [7.8620952, 46.8970975]}}, {"type": "Feature", "properties": {"name": "Schule 034", "typ": "primar", "schueler": 297}, "geometry": {"type": "Point", "coordinates": [7.9153852, 46.8629592]}}, {"type": "Feature", "properties": {"name": "Schule 035", "typ": "primar", "schueler": 421}, "geometry": {"type": "Point", "coordinates": [7.9224766, 46.936441]}}, {"type": "Feature", "properties": {"name": "Schule 036", "typ": "kindergarten", "schueler": 10}, "geometry": {"type": "Point", "coordinates": [7.9532309, 46.8661382]}}, {"type": "Feature", "properties": {"name": "Schule 037", "typ": "primar", "schueler": 350}, "geometry": {"type": "Point", "coordinates": [7.9606847, 46.8736004]}}, {"type": "Feature", "properties": {"name": "Schule 038", "typ": "sekundar", "schueler": 277}, "geometry": {"type": "Point", "coordinates": [7.9771153, 46.8767087]}}, {"type": "Feature", "properties": {"name": "Schule 039", "typ": "primar", "schueler": 300}, "geometry": {"type": "Point", "coordinates": [7.8967579, 46.9007216]}}, {"type": "Feature", "properties": {"name": "Schule 040", "typ": "kindergarten", "schueler": 34}, "geometry": {"type": "Point", "coordinates": [7.9575768, 46.8892136]}}, {"type": "Feature", "properties": {"name": "Schule 041", "typ": "kindergarten", "schueler": 13}, "geometry": {"type": "Point", "coordinates": [7.923156, 46.8733434]}}, {"type": "Feature", "properties": {"name": "Schule 042", "typ": "primar", "schueler": 374}, "geometry": {"type": "Point", "coordinates": [7.9280892, 46.9333776]}}, {"type": "Feature", "properties": {"name": "Schule 043", "typ": "primar", "schueler": 148}, "geometry": {"type": "Point", "coordinates": [7.8899001, 46.9180442]}}, {"type": "Feature", "properties": {"name": "Schule 044", "typ": "primar", "schueler": 283}, "geometry": {"type": "Point", "coordinates": [7.9119096, 46.890112]}}, {"type": "Feature", "properties": {"name": "Schule 045", "typ": "primar", "schueler": 219}, "geometry": {"type": "Point", "coordinates": [7.97701, 46.9161768]}}, {"type": "Feature", "properties": {"name": "Schule 046", "typ": "kindergarten", "schueler": 24}, "geometry": {"type": "Point", "coordinates": [7.8516514, 46.9218684]}}, {"type": "Feature", "properties": {"name": "Schule 047", "typ": "primar", "schueler": 272}, "geometry": {"type": "Point", "coordinates": [7.8828263, 46.8882495]}}, {"type": "Feature", "properties": {"name": "Schule 048", "typ": "sekundar", "schueler": 619}, "geometry": {"type": "Point", "coordinates": [7.8990215, 46.8857972]}}, {"type": "Feature", "properties": {"name": "Schule 049", "typ": "sekundar", "schueler": 792}, "geometry": {"type": "Point", "coordinates": [7.873163, 46.9003214]}}, {"type": "Feature", "properties": {"name": "Schule 050", "typ": "primar", "schueler": 348}, "geometry": {"type": "Point", "coordinates": [7.944337, 46.9337416]}}, {"type": "Feature", "properties": {"name": "Schule 051", "typ": "primar", "schueler": 138}, "geometry": {"type": "Point", "coordinates": [7.8485242, 46.9241293]}}, {"type": "Feature", "properties": {"name": "Schule 052", "typ": "kindergarten", "schueler": 58}, "geometry": {"type": "Point", "coordinates": [7.897121, 46.8949685]}}, {"type": "Feature", "properties": {"name": "Schule 053", "typ": "primar", "schueler": 344}, "geometry": {"type": "Point", "coordinates": [7.9328771, 46.9153573]}}, {"type": "Feature", "properties": {"name": "Schule 054", "typ": "primar", "schueler": 261}, "geometry": {"type": "Point", "coordinates": [7.9054925, 46.9012333]}}, {"type": "Feature", "properties": {"name": "Schule 055", "typ": "sekundar", "schueler": 778}, "geometry": {"type": "Point", "coordinates": [7.8511969, 46.9202976]}}, {"type": "Feature", "properties": {"name": "Schule 056", "typ": "kindergarten", "schueler": 23}, "geometry": {"type": "Point", "coordinates": [7.8598837, 46.9125138]}}, {"type": "Feature", "properties": {"name": "Schule 057", "typ": "kindergarten", "schueler": 45}, "geometry": {"type": "Point", "coordinates": [7.8511287, 46.9357231]}}, {"type": "Feature", "properties": {"name": "Schule 058", "typ": "kindergarten", "schueler": 50}, "geometry": {"type": "Point", "coordinates": [7.8956106, 46.8762542]}}, {"type": "Feature", "properties": {"name": "Schule 059", "typ": "kindergarten", "schueler": 58}, "geometry": {"type": "Point", "coordinates": [7.9487412, 46.8690242]}}, {"type": "Feature", "properties": {"name": "Schule 060", "typ": "sekundar", "schueler": 806}, "geometry": {"type": "Point", "coordinates": [7.9358036, 46.8930792]}}, {"type": "Feature", "properties": {"name": "Schule 061", "typ": "primar", "schueler": 329}, "geometry": {"type": "Point", "coordinates": [7.9602654, 46.9146836]}}, {"type": "Feature", "properties": {"name": "Schule 062", "typ": "primar", "schueler": 88}, "geometry": {"type": "Point", "coordinates": [7.9632599, 46.9040527]}}, {"type": "Feature", "properties": {"name": "Schule 063", "typ": "primar", "schueler": 188}, "geometry": {"type": "Point", "coordinates": [7.8969034, 46.8795638]}}, {"type": "Feature", "properties": {"name": "Schule 064", "typ": "primar", "schueler": 135}, "geometry": {"type": "Point", "coordinates": [7.9501458, 46.8984295]}}, {"type": "Feature", "properties": {"name": "Schule 065", "typ": "sekundar", "schueler": 654}, "geometry": {"type": "Point", "coordinates": [7.9300688, 46.9245204]}}, {"type": "Feature", "properties": {"name": "Schule 066", "typ": "primar", "schueler": 387}, "geometry": {"type": "Point", "coordinates": [7.8627738, 46.9092829]}}, {"type": "Feature", "properties": {"name": "Schule 067", "typ": "kindergarten", "schueler": 59}, "geometry": {"type": "Point", "coordinates": [7.9281561, 46.8818273]}}, {"type": "Feature", "properties": {"name": "Schule 068", "typ": "kindergarten", "schueler": 51}, "geometry": {"type": "Point", "coordinates": [7.966897, 46.9067481]}}, {"type": "Feature", "properties": {"name": "Schule 069", "typ": "primar", "schueler": 228}, "geometry": {"type": "Point", "coordinates": [7.9161645, 46.8900683]}}, {"type": "Feature", "properties": {"name": "Schule 070", "typ": "primar", "schueler": 351}, "geometry": {"type": "Point", "coordinates": [7.8472431, 46.9243435]}}, {"type": "Feature", "properties": {"name": "Schule 071", "typ": "kindergarten", "schueler": 20}, "geometry": {"type": "Point", "coordinates": [7.8805475, 46.8617469]}}, {"type": "Feature", "properties": {"name": "Schule 072", "typ": "primar", "schueler": 367}, "geometry": {"type": "Point", "coordinates": [7.9741758, 46.8990286]}}, {"type": "Feature", "properties": {"name": "Schule 073", "typ": "primar", "schueler": 134}, "geometry": {"type": "Point", "coordinates": [7.8439028, 46.900783]}}, {"type": "Feature", "properties": {"name": "Schule 074", "typ": "kindergarten", "schueler": 48}, "geometry": {"type": "Point", "coordinates": [7.9021773, 46.9151015]}}, {"type": "Feature", "properties": {"name": "Schule 075", "typ": "primar", "schueler": 114}, "geometry": {"type": "Point", "coordinates": [7.8437282, 46.9363746]}}, {"type": "Feature", "properties": {"name": "Schule 076", "typ": "sekundar", "schueler": 785}, "geometry": {"type": "Point", "coordinates": [7.8813524, 46.8944242]}}, {"type": "Feature", "properties": {"name": "Schule 077", "typ": "kindergarten", "schueler": 12}, "geometry": {"type": "Point", "coordinates": [7.9231163, 46.9401057]}}, {"type": "Feature", "properties": {"name": "Schule 078", "typ": "primar", "schueler": 428}, "geometry": {"type": "Point", "coordinates": [7.9184344, 46.9196645]}}, {"type": "Feature", "properties": {"name": "Schule 079", "typ": "primar", "schueler": 396}, "geometry": {"type": "Point", "coordinates": [7.8549857, 46.9104223]}}, {"type": "Feature", "properties": {"name": "Schule 080", "typ": "sekundar", "schueler": 300}, "geometry": {"type": "Point", "coordinates": [7.8359735, 46.9248418]}}, {"type": "Feature", "properties": {"name": "Schule 081", "typ": "kindergarten", "schueler": 42}, "geometry": {"type": "Point", "coordinates": [7.9283713, 46.9106945]}}, {"type": "Feature", "properties": {"name": "Schule 082", "typ": "primar", "schueler": 97}, "geometry": {"type": "Point", "coordinates": [7.9419197, 46.9044317]}}, {"type": "Feature", "properties": {"name": "Schule 083", "typ": "primar", "schueler": 436}, "geometry": {"type": "Point", "coordinates": [7.8410474, 46.8635953]}}, {"type": "Feature", "properties": {"name": "Schule 084", "typ": "primar", "schueler": 209}, "geometry": {"type": "Point", "coordinates": [7.916194, 46.9015418]}}, {"type": "Feature", "properties": {"name": "Schule 085", "typ": "primar", "schueler": 141}, "geometry": {"type": "Point", "coordinates": [7.9815862, 46.8663221]}}, {"type": "Feature", "properties": {"name": "Schule 086", "typ": "primar", "schueler": 398}, "geometry": {"type": "Point", "coordinates": [7.8835864, 46.8863988]}}, {"type": "Feature", "properties": {"name": "Schule 087", "typ": "primar", "schueler": 417}, "geometry": {"type": "Point", "coordinates": [7.8765061, 46.8697108]}}, {"type": "Feature", "properties": {"name": "Schule 088", "typ": "sekundar", "schueler": 891}, "geometry": {"type": "Point", "coordinates": [7.9337346, 46.9266617]}}, {"type": "Feature", "properties": {"name": "Schule 089", "typ": "sekundar", "schueler": 227}, "geometry": {"type": "Point", "coordinates": [7.8475739, 46.9395516]}}, {"type": "Feature", "properties": {"name": "Schule 090", "typ": "kindergarten", "schueler": 58}, "geometry": {"type": "Point", "coordinates": [7.8494929, 46.9332111]}}, {"type": "Feature", "properties": {"name": "Schule 091", "typ": "kindergarten", "schueler": 49}, "geometry": {"type": "Point", "coordinates": [7.9129181, 46.9074852]}}, {"type": "Feature", "properties": {"name": "Schule 092", "typ": "primar", "schueler": 305}, "geometry": {"type": "Point", "coordinates": [7.8484539, 46.9383494]}}, {"type": "Feature", "properties": {"name": "Schule 093", "typ": "sekundar", "schueler": 459}, "geometry": {"type": "Point", "coordinates": [7.8994458, 46.8787971]}}, {"type": "Feature", "properties": {"name": "Schule 094", "typ": "kindergarten", "schueler": 55}, "geometry": {"type": "Point", "coordinates": [7.8699174, 46.8672189]}}, {"type": "Feature", "properties": {"name": "Schule 095", "typ": "primar", "schueler": 134}, "geometry": {"type": "Point", "coordinates": [7.8997736, 46.9189261]}}, {"type": "Feature", "properties": {"name": "Schule 096", "typ": "kindergarten", "schueler": 58}, "geometry": {"type": "Point", "coordinates": [7.9136324, 46.8666088]}}, {"type": "Feature", "properties": {"name": "Schule 097", "typ": "kindergarten", "schueler": 28}, "geometry": {"type": "Point", "coordinates": [7.9384656, 46.8879366]}}, {"type": "Feature", "properties": {"name": "Schule 098", "typ": "kindergarten", "schueler": 33}, "geometry": {"type": "Point", "coordinates": [7.9581237, 46.8720531]}}, {"type": "Feature", "properties": {"name": "Schule 099", "typ": "primar", "schueler": 369}, "geometry": {"type": "Point", "coordinates": [7.9477608, 46.9397327]}}, {"type": "Feature", "properties": {"name": "Schule 100", "typ": "primar", "schueler": 178}, "geometry": {"type": "Point", "coordinates": [7.9305171, 46.9051928]}}, {"type": "Feature", "properties": {"name": "Schule 101", "typ": "kindergarten", "schueler": 20}, "geometry": {"type": "Point", "coordinates": [7.8558901, 46.9248206]}}, {"type": "Feature", "properties": {"name": "Schule 102", "typ": "primar", "schueler": 226}, "geometry": {"type": "Point", "coordinates": [7.9527399, 46.9119893]}}, {"type": "Feature", "properties": {"name": "Schule 103", "typ": "primar", "schueler": 292}, "geometry": {"type": "Point", "coordinates": [7.9438902, 46.8858834]}}, {"type": "Feature", "properties": {"name": "Schule 104", "typ": "primar", "schueler": 278}, "geometry": {"type": "Point", "coordinates": [7.9192507, 46.8824264]}}, {"type": "Feature", "properties": {"name": "Schule 105", "typ": "primar", "schueler": 306}, "geometry": {"type": "Point", "coordinates": [7.9027211, 46.9364633]}}, {"type": "Feature", "properties": {"name": "Schule 106", "typ": "primar", "schueler": 288}, "geometry": {"type": "Point", "coordinates": [7.9860619, 46.8786363]}}, {"type": "Feature", "properties": {"name": "Schule 107", "typ": "primar", "schueler": 119}, "geometry": {"type": "Point", "coordinates": [7.9330193, 46.934552]}}, {"type": "Feature", "properties": {"name": "Schule 108", "typ": "kindergarten", "schueler": 23}, "geometry": {"type": "Point", "coordinates": [7.9487666, 46.8686562]}}, {"type": "Feature", "properties": {"name": "Schule 109", "typ": "kindergarten", "schueler": 18}, "geometry": {"type": "Point", "coordinates": [7.8985175, 46.8937683]}}, {"type": "Feature", "properties": {"name": "Schule 110", "typ": "primar", "schueler": 243}, "geometry": {"type": "Point", "coordinates": [7.8800883, 46.9134255]}}, {"type": "Feature", "properties": {"name": "Schule 111", "typ": "kindergarten", "schueler": 53}, "geometry": {"type": "Point", "coordinates": [7.931226, 46.9366214]}}, {"type": "Feature", "properties": {"name": "Schule 112", "typ": "sekundar", "schueler": 800}, "geometry": {"type": "Point", "coordinates": [7.9267015, 46.8944694]}}, {"type": "Feature", "properties": {"name": "Schule 113", "typ": "primar", "schueler": 288}, "geometry": {"type": "Point", "coordinates": [7.9299165, 46.8816624]}}, {"type": "Feature", "properties": {"name": "Schule 114", "typ": "kindergarten", "schueler": 52}, "geometry": {"type": "Point", "coordinates": [7.9674116, 46.912769]}}, {"type": "Feature", "properties": {"name": "Schule 115", "typ": "primar", "schueler": 105}, "geometry": {"type": "Point", "coordinates": [7.8551396, 46.911987]}}, {"type": "Feature", "properties": {"name": "Schule 116", "typ": "kindergarten", "schueler": 47}, "geometry": {"type": "Point", "coordinates": [7.9502548, 46.8821392]}}, {"type": "Feature", "properties": {"name": "Schule 117", "typ": "primar", "schueler": 157}, "geometry": {"type": "Point", "coordinates": [7.9751309, 46.9269226]}}, {"type": "Feature", "properties": {"name": "Schule 118", "typ": "sekundar", "schueler": 492}, "geometry": {"type": "Point", "coordinates": [7.9611119, 46.8977603]}}, {"type": "Feature", "properties": {"name": "Schule 119", "typ": "kindergarten", "schueler": 30}, "geometry": {"type": "Point", "coordinates": [7.8984621, 46.8837395]}}, {"type": "Feature", "properties": {"name": "Schule 120", "typ": "kindergarten", "schueler": 34}, "geometry": {"type": "Point", "coordinates": [7.8663639, 46.9177225]}}]}
