{"type": "FeatureCollection", "features": [{"type": "Feature", "properties": {"name": "Talstrasse", "klasse": "haupt"}, "geometry": {"type": "LineString", "coordinates": [[7.8294846, 46.8676617], [7.9110531, 46.8961398], [7.9928378, 46.9371525]]}}, {"type": "Feature", "properties": {"name": "Eggbergstrasse", "klasse": "neben"}, "geometry": {"type": "LineString", "coordinates": [[7.8713821, 46.8585157], [7.8760022, 46.9430548]]}}, {"type": "Feature", "properties": {"name": "Riedweg", "klasse": "neben"}, "geometry": {"type": "LineString", "coordinates": [[7.9508654, 46.9427449], [7.9452561, 46.9049891], [7.9697312, 46.8581018]]}}]}
